     2.100          NAVIGATION                              RINEX VERSION / TYPE
fic2rin                                 07/28/2017 00:21:14 PGM / RUN BY / DATE
                                                            END OF HEADER
29 17  7 27 14  0  0.0  .581101980060D-03 -.409272615798D-11  .000000000000D+00
     .130000000000D+02  .652500000000D+02  .424910556373D-08  .291878356799D+01
     .322237610817D-05  .616181874648D-03  .557675957680D-05  .515359536934D+04
     .396000000000D+06 -.279396772385D-07  .176840761986D+01 -.130385160446D-07
     .981389077194D+00  .279781250000D+03  .716900680168D+00 -.808783689087D-08
     .227509476683D-09  .100000000000D+01  .195900000000D+04  .000000000000D+00
     .240000000000D+01  .000000000000D+00 -.977888703346D-08  .130000000000D+02
     .388806000000D+06  .400000000000D+01
30 17  7 27 14  0  0.0  .148541759700D-03 -.170530256582D-11  .000000000000D+00
     .900000000000D+02 -.231250000000D+02  .510664128354D-08 -.132719060551D+01
    -.147707760334D-05  .301654648501D-02  .538676977158D-05  .515364630318D+04
     .396000000000D+06  .558793544769D-07 -.325115076702D+00 -.167638063431D-07
     .947506217974D+00  .266250000000D+03 -.310756447248D+01 -.845178062202D-08
    -.146791828755D-09  .100000000000D+01  .195900000000D+04  .000000000000D+00
     .240000000000D+01  .000000000000D+00  .372529029846D-08  .900000000000D+02
     .388806000000D+06  .400000000000D+01
31 17  7 27 14  0  0.0  .185749027878D-03 -.238742359215D-11  .000000000000D+00
     .230000000000D+02 -.164375000000D+02  .477412743300D-08 -.150483982109D+01
    -.118091702461D-05  .843569228891D-02  .593252480030D-05  .515374019051D+04
     .396000000000D+06 -.540167093277D-07 -.351948183437D+00 -.111758708954D-06
     .966513208915D+00  .269875000000D+03 -.250849466944D+00 -.826105839196D-08
    -.106790162525D-09  .100000000000D+01  .195900000000D+04  .000000000000D+00
     .240000000000D+01  .000000000000D+00 -.135041773319D-07  .230000000000D+02
     .388806000000D+06  .400000000000D+01
32 17  7 27 14  0  0.0 -.471505336463D-03 -.761701812735D-11  .000000000000D+00
     .730000000000D+02  .570937500000D+02  .465805116939D-08  .209828454172D+01
     .305846333504D-05  .138543429784D-02  .806339085102D-05  .515374412346D+04
     .396000000000D+06  .558793544769D-08 -.143829729234D+01 -.186264514923D-08
     .957416449290D+00  .217562500000D+03 -.252656728290D+01 -.816605443466D-08
     .472162524607D-09  .100000000000D+01  .195900000000D+04  .000000000000D+00
     .240000000000D+01  .000000000000D+00  .465661287308D-09  .730000000000D+02
     .388806000000D+06  .400000000000D+01
 6 17  7 27 13 59 44.0  .381873454899D-03  .420641299570D-11  .000000000000D+00
     .500000000000D+01 -.618125000000D+02  .458126225653D-08 -.617147431376D+00
    -.315532088280D-05  .655574258417D-03  .448524951935D-05  .515371643448D+04
     .395984000000D+06  .260770320892D-07  .275501767174D+01 -.931322574615D-08
     .968071705284D+00  .298125000000D+03 -.102778300347D+01 -.829998858498D-08
    -.270368404786D-09  .100000000000D+01  .195900000000D+04  .000000000000D+00
     .240000000000D+01  .000000000000D+00  .465661287308D-08  .500000000000D+01
     .391236000000D+06  .400000000000D+01
 1 17  7 27 13 59 44.0  .566476956010D-04 -.341060513165D-12  .000000000000D+00
     .000000000000D+00 -.539687500000D+02  .466019411579D-08 -.673573401767D+00
    -.291503965855D-05  .693199434318D-02  .428967177868D-05  .515367917252D+04
     .395984000000D+06  .121071934700D-06  .276338785993D+01  .132247805595D-06
     .968313837244D+00  .299843750000D+03  .591326990183D+00 -.836784855448D-08
    -.322870591713D-09  .100000000000D+01  .195900000000D+04  .000000000000D+00
     .240000000000D+01  .000000000000D+00  .558793544769D-08  .000000000000D+00
     .391806000000D+06  .400000000000D+01
25 17  7 27 13 59 44.0 -.428862404078D-03 -.648014975013D-11  .000000000000D+00
     .300000000000D+01  .166562500000D+02  .409267047615D-08 -.235754470799D+01
     .774860382080D-06  .648711645044D-02  .110082328320D-04  .515356278229D+04
     .395984000000D+06  .173225998878D-06  .666013326403D+00 -.502914190292D-07
     .976951587304D+00  .174906250000D+03  .830880339147D+00 -.774282251964D-08
    -.778603860547D-10  .100000000000D+01  .195900000000D+04  .000000000000D+00
     .240000000000D+01  .000000000000D+00  .558793544769D-08  .300000000000D+01
     .394896000000D+06  .400000000000D+01
 1 17  7 27 15 59 44.0  .566458329558D-04 -.341060513165D-12  .000000000000D+00
     .100000000000D+01 -.539062500000D+02  .478484216502D-08  .376598240428D+00
    -.268407166004D-05  .693193078041D-02  .413507223129D-05  .515367903137D+04
     .403184000000D+06 -.204890966415D-07  .276332704204D+01  .106170773506D-06
     .968311161567D+00  .299093750000D+03  .591334622226D+00 -.845392356842D-08
    -.324299222650D-09  .100000000000D+01  .195900000000D+04  .000000000000D+00
     .240000000000D+01  .000000000000D+00  .558793544769D-08  .100000000000D+01
     .396006000000D+06  .400000000000D+01
 6 17  7 27 15 59 44.0  .381903722882D-03  .420641299570D-11  .000000000000D+00
     .600000000000D+01 -.525625000000D+02  .464090759814D-08  .432926148495D+00
    -.276230275631D-05  .654059578665D-03  .422075390816D-05  .515371357346D+04
     .403184000000D+06  .372529029846D-08  .275495781498D+01  .186264514923D-07
     .968069907357D+00  .303812500000D+03 -.102770032519D+01 -.829248827256D-08
    -.244653047924D-09  .100000000000D+01  .195900000000D+04  .000000000000D+00
     .240000000000D+01  .000000000000D+00  .465661287308D-08  .600000000000D+01
     .396006000000D+06  .400000000000D+01
25 17  7 27 15 59 44.0 -.428909435868D-03 -.648014975013D-11  .000000000000D+00
     .800000000000D+01  .157812500000D+02  .408838458334D-08 -.130735424096D+01
     .895932316780D-06  .648793380242D-02  .104885548353D-04  .515356171417D+04
     .403184000000D+06  .165775418282D-06  .665957554114D+00  .428408384323D-07
     .976951139651D+00  .185937500000D+03  .830936777063D+00 -.776210903728D-08
    -.617882880159D-10  .100000000000D+01  .195900000000D+04  .000000000000D+00
     .240000000000D+01  .000000000000D+00  .558793544769D-08  .800000000000D+01
     .396006000000D+06  .400000000000D+01
 2 17  7 27 16  0  0.0  .367678236216D-03 -.852651282912D-11  .000000000000D+00
     .710000000000D+02 -.487187500000D+02  .527343394541D-08  .712260918446D+00
    -.247545540333D-05  .169552051229D-01  .425986945629D-05  .515355133820D+04
     .403200000000D+06 -.178813934326D-06  .270866256985D+01  .819563865662D-07
     .947231704323D+00  .296062500000D+03 -.196756160100D+01 -.888715590000D-08
    -.340371320689D-09  .100000000000D+01  .195900000000D+04  .000000000000D+00
     .240000000000D+01  .000000000000D+00 -.204890966415D-07  .710000000000D+02
     .396006000000D+06  .400000000000D+01
 3 17  7 27 16  0  0.0 -.839848071337D-04  .329691829393D-11  .000000000000D+00
     .740000000000D+02 -.573125000000D+02  .434339520556D-08 -.375456368499D+00
    -.313855707645D-05  .847812741995D-03  .114608556032D-04  .515369621849D+04
     .403200000000D+06  .670552253723D-07 -.247778386720D+01  .186264514923D-08
     .960222229613D+00  .158312500000D+03  .216629472401D+00 -.794354516626D-08
    -.230009580822D-09  .100000000000D+01  .195900000000D+04  .000000000000D+00
     .340000000000D+01  .000000000000D+00  .232830643654D-08  .740000000000D+02
     .396006000000D+06  .400000000000D+01
 4 17  7 27 16  0  0.0  .210478901863D-05  .454747350886D-11  .000000000000D+00
     .930000000000D+02  .765625000000D+02  .471448209139D-08  .278449443822D+01
     .386312603951D-05  .122784134001D-01  .734254717827D-05  .515366668320D+04
     .403200000000D+06 -.132247805595D-06  .161704996215D+01 -.113621354103D-06
     .956442703221D+00  .235593750000D+03  .424788128325D+00 -.807997942072D-08
     .384301721995D-09  .100000000000D+01  .195900000000D+04  .000000000000D+00
     .340000000000D+01  .630000000000D+02 -.558793544769D-08  .930000000000D+02
     .396006000000D+06  .400000000000D+01
 5 17  7 27 16  0  0.0 -.355960801244D-04  .147792889038D-11  .000000000000D+00
     .360000000000D+02 -.506875000000D+02  .458161941427D-08 -.296801396515D+01
    -.265799462795D-05  .511376082432D-02  .108443200588D-04  .515380167770D+04
     .403200000000D+06 -.130385160446D-07 -.249545288058D+01 -.279396772385D-07
     .947178865184D+00  .163437500000D+03  .557545522889D+00 -.798926135623D-08
    -.839320675361D-10  .100000000000D+01  .195900000000D+04  .000000000000D+00
     .240000000000D+01  .000000000000D+00 -.107102096081D-07  .360000000000D+02
     .396006000000D+06  .400000000000D+01
 7 17  7 27 16  0  0.0  .322991982102D-03 -.466116034659D-11  .000000000000D+00
     .109000000000D+03 -.990625000000D+01  .484877339945D-08 -.246176578905D+00
    -.357627868652D-06  .109079875983D-01  .542029738426D-05  .515372172928D+04
     .403200000000D+06  .875443220139D-07 -.363204316941D+00  .154599547386D-06
     .961772739912D+00  .275937500000D+03 -.257977509831D+01 -.846249535404D-08
    -.139648674071D-09  .100000000000D+01  .195900000000D+04  .000000000000D+00
     .240000000000D+01  .000000000000D+00 -.111758708954D-07  .109000000000D+03
     .396006000000D+06  .400000000000D+01
 8 17  7 27 16  0  0.0 -.678109936416D-04 -.125055521494D-11  .000000000000D+00
     .170000000000D+02  .690937500000D+02  .465233664564D-08  .306215597221D+01
     .366196036339D-05  .253992294893D-02  .678002834320D-05  .515366612244D+04
     .403200000000D+06 -.167638063431D-07  .169972016355D+01  .838190317154D-07
     .966986531670D+00  .251718750000D+03 -.627537003892D+00 -.818712674098D-08
     .399302346831D-09  .100000000000D+01  .195900000000D+04  .000000000000D+00
     .240000000000D+01  .000000000000D+00  .512227416039D-08  .170000000000D+02
     .396006000000D+06  .400000000000D+01
